<?xml version="1.0" encoding="UTF-8"?>
<kml xmlns="http://www.opengis.net/kml/2.2" xmlns:gx="http://www.google.com/kml/ext/2.2" xmlns:kml="http://www.opengis.net/kml/2.2" xmlns:atom="http://www.w3.org/2005/Atom">
<Document>
	<name>SEA subregions</name>
	<gx:CascadingStyle kml:id="__managed_style_27DBC8BF6F2974EBFFE1">
		<styleUrl>https://earth.google.com/balloon_components/base/1.0.26.0/card_template.kml#main</styleUrl>
		<Style>
			<IconStyle>
				<scale>1.2</scale>
				<Icon>
					<href>https://earth.google.com/earth/rpc/cc/icon?color=1976d2&amp;id=2000&amp;scale=4</href>
				</Icon>
				<hotSpot x="64" y="128" xunits="pixels" yunits="insetPixels"/>
			</IconStyle>
			<LabelStyle>
			</LabelStyle>
			<LineStyle>
				<color>ff2dc0fb</color>
				<width>6</width>
			</LineStyle>
			<PolyStyle>
				<color>40ffffff</color>
			</PolyStyle>
			<BalloonStyle>
			</BalloonStyle>
		</Style>
	</gx:CascadingStyle>
	<gx:CascadingStyle kml:id="__managed_style_19E7F230462974EBFFE1">
		<styleUrl>https://earth.google.com/balloon_components/base/1.0.26.0/card_template.kml#main</styleUrl>
		<Style>
			<IconStyle>
				<Icon>
					<href>https://earth.google.com/earth/rpc/cc/icon?color=1976d2&amp;id=2000&amp;scale=4</href>
				</Icon>
				<hotSpot x="64" y="128" xunits="pixels" yunits="insetPixels"/>
			</IconStyle>
			<LabelStyle>
			</LabelStyle>
			<LineStyle>
				<color>ff2dc0fb</color>
				<width>4</width>
			</LineStyle>
			<PolyStyle>
				<color>40ffffff</color>
			</PolyStyle>
			<BalloonStyle>
			</BalloonStyle>
		</Style>
	</gx:CascadingStyle>
	<StyleMap id="__managed_style_03D5CE0ACC2974EBFFE1">
		<Pair>
			<key>normal</key>
			<styleUrl>#__managed_style_19E7F230462974EBFFE1</styleUrl>
		</Pair>
		<Pair>
			<key>highlight</key>
			<styleUrl>#__managed_style_27DBC8BF6F2974EBFFE1</styleUrl>
		</Pair>
	</StyleMap>
	<Placemark id="0331618BAF2974D85533">
		<name>SCS</name>
		<description><![CDATA[<div>South China Sea</div>]]></description>
		<LookAt>
			<longitude>104.4802803067731</longitude>
			<latitude>4.867833093265985</latitude>
			<altitude>-81.73493139682434</altitude>
			<heading>-4.762536006025909</heading>
			<tilt>0.3626871637380893</tilt>
			<gx:fovy>35</gx:fovy>
			<range>2017107.302508652</range>
			<altitudeMode>absolute</altitudeMode>
		</LookAt>
		<styleUrl>#__managed_style_03D5CE0ACC2974EBFFE1</styleUrl>
		<Polygon>
			<outerBoundaryIs>
				<LinearRing>
					<coordinates>
						103.7209425113209,1.579834714457482,432.2565132479778 104.0510651046013,1.022615991002983,128.9960119110699 104.4682529610917,1.069587841542699,-32.97493958252916 104.5925238541992,0.9216755141575809,244.6525860106101 109.3140477845017,1.315304663744195,151.1628719859011 110.7381518786149,0.9622311917075634,32.76986649139278 112.3469446794905,1.108772243560836,539.6786767197208 116.834025229184,5.236204976811345,192.7751629524691 117.0965828027753,6.588575339138286,476.0004605119359 117.1715303508248,7.255523541096476,-164.5913087367709 117.0151621377908,7.988077735843911,98.85177977245299 117.277013454206,8.483733749985323,353.4176803067838 117.8337525399817,9.00464452985123,722.9269998012351 118.1995351201241,9.271433758126364,719.0164019528092 118.5168939722598,9.636860944714558,876.0222176364953 118.686503973114,9.907897956440733,604.6318495710231 118.7722640816325,10.00258605728376,480.135550844288 118.9821543701211,10.07481563081024,351.7259566138517 119.0881257604384,10.19790317295265,809.5365081096724 119.2327761863815,10.38010804341003,265.0841415300815 119.454387042491,10.57897004608045,401.8226014588922 119.4875781000429,10.77447858630785,9.10700067488194 119.4647227569929,11.04121182894425,526.6686197393668 119.4999462416952,11.21529579585906,435.4421965436339 119.5011302481815,11.33165853355431,351.7343110463124 119.8049367437375,11.44052526358375,36.98660580101241 119.9995413922154,11.72801144506692,294.1503289509989 120.0024344183342,11.88548851913706,248.1288640163929 120.0984597569408,12.12788298254662,240.3386638077608 120.7629067749232,13.17424660559657,457.364500056059 120.9215937330158,13.42191469661146,546.6030913810893 121.1254018616544,13.75113915632435,132.2837368471009 121.2939018493309,14.03287798328616,741.9438767492475 121.1368740590078,14.59560560094085,213.2360277869777 120.9634242201781,15.6935109686124,147.2912352349701 121.0939295490863,16.59984391085193,1185.332478891374 121.1925190194816,18.25904925780179,837.9706140365923 121.1453389187323,19.80320963933698,607.9600840291731 120.9912985471121,20.98978504005778,289.3946080484525 121.0574257282148,21.35364809308773,64.06372051784821 120.8232367282884,22.18842523830528,564.6778940077924 120.8082947869546,23.48332383376949,2164.880557531159 120.8248141136223,23.8387595650648,344.2449616298651 121.2100150839452,24.60282960333882,1709.241360324817 121.1642687717278,24.92252268205434,203.3642559710045 118.6691937928799,26.020928259783,901.809965607515 116.2191653834885,25.72883320630421,485.6549927831024 106.0493133638566,24.66892151968156,814.373645697146 102.4184277400702,20.63061540695212,381.7775410324415 99.36784782378626,13.81265718112729,279.3351272933293 99.37653718961542,12.09868681333104,762.3368077514443 99.04150718654004,10.53208035185153,162.8448331408425 98.89220213594528,9.362427179870929,648.4149813719466 99.22506555637142,8.447385007674665,118.2641251956459 100.1673101294105,6.990837965437152,502.9540792868377 102.2796023619012,4.212913759939509,539.8000615068734 103.7209425113209,1.579834714457482,432.2565132479778 
					</coordinates>
				</LinearRing>
			</outerBoundaryIs>
		</Polygon>
	</Placemark>
	<Placemark id="0B346C06202974EBC543">
		<name>SWO</name>
		<description><![CDATA[<div>South West Ocean</div>]]></description>
		<LookAt>
			<longitude>99.28976684373829</longitude>
			<latitude>13.04775878765012</latitude>
			<altitude>451.9991255885906</altitude>
			<heading>0</heading>
			<tilt>0</tilt>
			<gx:fovy>35</gx:fovy>
			<range>759227.9146622121</range>
			<altitudeMode>absolute</altitudeMode>
		</LookAt>
		<styleUrl>#__managed_style_03D5CE0ACC2974EBFFE1</styleUrl>
		<Polygon>
			<outerBoundaryIs>
				<LinearRing>
					<coordinates>
						99.98993307359601,14.57538994566569,162.9255561515129 97.29006630500308,20.09241149642662,216.3378316844078 96.98974338797967,26.53529061867428,848.6398025617201 91.19157917927851,27.54041499116689,2967.580157471108 86.16133394949425,26.65233174783636,-224.5422782328154 78.05428781190504,18.60720518968569,155.2214634179929 77.85347330221516,9.283434437603002,-150.1242288433536 68.19822444253114,-27.55860416233423,-2436.324701803188 123.9732541583403,-28.56849768405511,2328.966110190201 122.894488650569,-17.55278539368077,330.0889563828782 122.9671467742253,-10.80147171195267,75.08025420416043 121.9119903995442,-10.51923134141508,124.5057553867392 121.5749998246797,-10.62285828079514,115.1907934978923 120.6364925552189,-10.14256662056689,337.7882263805425 119.8787681034656,-9.611642083791063,520.6254069881859 119.1179028737626,-9.549797357428062,313.2930820462909 117.263219009981,-8.934991230029972,307.9194613061345 117.1660207092388,-8.724310892514634,419.9501899081254 116.3019918401824,-8.577187138014791,571.8010361292698 115.1617675881192,-8.389402718031,482.2236317525252 114.7232708911727,-8.261679969672345,1046.307576955616 114.3068061358258,-8.078560355612003,1265.121500802019 111.837233209024,-7.87326668816902,1604.481252597807 109.632913552158,-7.272188638504464,973.2815900532272 106.7706509887263,-6.518668988621947,520.3363911317705 106.046130627138,-6.145305459009471,471.1422073845111 105.5627675126147,-5.490248363988518,208.975362510039 102.0250852376906,-0.3930669219698218,267.5414996136799 102.3755860909785,0.7236442654527528,276.5986141302691 103.0976340649626,0.4520175859117924,12.27048978664687 103.2495983772972,0.6081055583990225,12.633735771246 103.4439499299639,0.6979677102142264,18.77237053347726 104.0649581213215,1.038098026877592,-11.50509681775432 103.8528344511886,1.417710431444716,24.7442963324674 102.865484582001,3.188226759802171,216.0888756093367 102.2867432084137,4.239741089175568,71.84570222475493 101.8886462129658,4.794678341115498,168.1733471802234 100.4561672912522,6.662544104957004,63.95192878402508 99.30933930633894,8.369488803460428,-4.982033466028872 98.91811383525641,9.368232997813665,124.2680685606651 99.00017853739811,9.998766217159833,243.3341003288944 99.06372749991149,10.53252609762506,66.41197602227672 99.32964351026288,11.75443515855704,160.3928768044453 99.57178635324027,12.41678863688147,284.8240145610968 99.65615199786497,13.89223847967576,61.71743044951346 99.98993307359601,14.57538994566569,162.9255561515129 
					</coordinates>
				</LinearRing>
			</outerBoundaryIs>
		</Polygon>
	</Placemark>
	<Placemark id="092ECA53722974F42E4C">
		<name>EQU</name>
		<description><![CDATA[<div>Indonesian seas</div>]]></description>
		<LookAt>
			<longitude>139.2679630604323</longitude>
			<latitude>-8.339566692621366</latitude>
			<altitude>303.4868299962598</altitude>
			<heading>-4.32545697093775</heading>
			<tilt>3.983186119889206</tilt>
			<gx:fovy>35</gx:fovy>
			<range>3234665.612379313</range>
			<altitudeMode>absolute</altitudeMode>
		</LookAt>
		<styleUrl>#__managed_style_03D5CE0ACC2974EBFFE1</styleUrl>
		<Polygon>
			<outerBoundaryIs>
				<LinearRing>
					<coordinates>
						140.580712968665,-3.991673511260658,936.4787780712871 136.6360884015821,-3.563529736544084,2198.106966609422 135.5799862536887,-3.79541309153006,1266.73595006039 134.2487985076114,-3.393727881687917,898.1658681112053 134.1737934105953,-2.727205048990677,556.4620926595259 133.8925972013253,-1.618792447591757,795.8665698604677 132.5427177322701,-1.011754279828591,774.4357908513928 131.5375125735817,-1.182697413943598,151.449651892912 131.0247672024422,-1.261575213527979,378.8896311410397 130.7570400350279,-0.8395772152172157,80.89252002209616 130.6728931050347,-0.2163595860991686,247.6148362765746 130.4010968299445,-0.185631845840365,530.3312027249845 129.5235893363225,-0.1496400953216985,-87.26079159612972 129.4480985809612,-0.07815779472824125,47.28729134399329 129.4052336240361,-0.04550537386920412,173.3990709897365 129.3831752366793,-0.01118598435224428,49.91550946153141 129.3349243786051,0.0240211406548165,18.29789119375364 129.2935697204642,0.03767300752484935,59.43970292709282 128.9736403736428,0.1693848094594292,19.95419569389871 128.8633500743437,0.2381406555320524,15.1553929178542 128.8508140577538,0.2683465942953633,80.1769235588614 128.6335743839323,0.3311494550930376,109.5525508776177 128.4712544346099,0.504264511613936,-17.62613110249626 128.1373919657827,0.6994816325761196,385.7044431040047 127.8772722524082,0.7045582822880078,505.1207614764671 127.7059234778812,0.8242475201176331,264.546304158536 127.5845778292674,0.9333989404525899,403.5149709911602 127.6340975688491,1.394170869013591,217.9170363883364 127.7054528306252,1.771647294827707,421.4174446710272 127.9668716031758,2.149350514430643,649.4620993490945 128.3581715324461,2.181462111770868,461.8138339950847 128.5753106723145,2.528267363089221,544.3062648009841 128.6306189344081,2.835584138044527,31.92547908131773 128.6229576485096,3.165967059877891,294.2511518731932 128.482709088155,3.809621726835322,74.34729981409946 128.3084703726537,4.299154415988554,100.6319412144129 127.9908391550806,4.818657323323983,36.57335809690755 127.7137179416651,5.237056017441623,129.6196989621059 127.400388099361,5.742068920445771,530.1193210053755 127.1137698125064,6.094779888775558,254.2599086000582 126.6988530404089,6.554311452550196,390.21513468987 126.323529943997,6.854152500446094,-51.04335463387968 126.2875309122259,6.892815658883311,14.63536540661472 126.2623633907138,6.959878509879736,52.59639342243975 126.334252205178,7.090888376317195,1120.631109468512 125.8027577750346,8.141263791830434,-29.1145334854503 125.842340566314,8.994254114634696,550.1004257167145 125.6727044352521,9.461832217380726,427.0504206840474 125.603648740831,9.99586937696054,650.1058605537364 125.5912630743811,10.38961252670034,-115.2485637187605 125.3814785712725,11.32263287486161,527.4406500992019 125.0725665933167,12.39418126052958,606.7121751008835 124.5368658980259,12.37591430015946,230.2620440567977 123.9229170688792,12.85934152471344,372.6530314665295 123.4783889589204,13.33866929477557,205.032501951163 123.1701321412233,13.58625835037089,-108.6434468760093 122.7282295098429,14.09966422046365,374.5896924886307 122.2490406487956,13.88476272399416,-261.8461515971618 121.8337057960954,13.97000545672462,179.1470519816839 121.553217289792,14.20499464175242,-121.5357185338397 121.2440652520693,15.11369281047144,424.5292064270719 121.1032380076957,15.98061640387746,536.7748145315076 121.6118289246735,17.33456571742709,-264.1111266527644 120.7337266556705,16.57757082611604,2138.909802155428 120.8444649446807,15.44346801897558,37.04246114461328 121.2625970577198,14.48900859752311,163.974324153333 121.1239064035035,14.02453456428365,640.4100336320043 120.7454636354177,13.33622022626027,988.104190807245 120.0019373193108,12.10620826553154,266.5258684434577 118.8456368243933,10.80937264945986,257.0233380815591 117.1800378311933,8.748236565667563,390.6660937104396 115.8747888012753,6.840204734971308,452.8469228162378 107.2800455041483,1.628888221329955,194.1057930653161 104.4509699172726,1.300648235713869,-26.29401800465747 103.1990284085627,1.068135014486499,323.4607360358064 102.0540543265598,0.972409337368811,249.6329387597551 101.3681249772748,-0.2040476162357039,104.8134215486645 101.9795963443099,-1.286046750262034,-38.53957266460396 104.6061488178525,-4.931344319031889,787.2096635971033 107.0153971312169,-7.239498950393551,540.5335562770614 110.6816864369443,-7.980402642807816,169.1733669938008 114.0131189331656,-8.503474411750181,35.94330928997417 116.6397094600237,-8.933227188637323,379.4767704295772 118.8659548045868,-9.778865549344376,-252.8142162440243 121.6818214276995,-11.06150674297272,112.4025365196778 122.6311208922135,-10.99788102087375,-927.5139864650869 122.6434076419114,-15.43444961522588,-638.0825612286899 122.7129625336929,-17.4774966564264,-481.8569680799575 123.8928565387122,-18.79089715837615,845.3804472308199 128.8399780036123,-17.82785478578323,1577.386053895757 137.1636163861274,-18.36127395489829,50.76847014734503 140.9383872892167,-18.50802801206335,279.2264097871121 143.3769050301003,-17.52079002597336,5.773561728103303 142.5025820260292,-12.34553988856356,802.252563480508 142.320177970086,-11.04953085116404,93.66233952428881 142.1821563040744,-10.67644911688005,-29.12933256371651 142.2529532888894,-10.16427959874219,109.6269649581913 142.2184149714312,-9.263615383077315,14.93209633241525 142.1218822975806,-8.897248566135689,12.43646630719182 140.580712968665,-3.991673511260658,936.4787780712871 
					</coordinates>
				</LinearRing>
			</outerBoundaryIs>
		</Polygon>
	</Placemark>
	<Placemark id="074ACE6C382974F59BB9">
		<name>NEO</name>
		<description><![CDATA[<div>North East Ocean</div>]]></description>
		<LookAt>
			<longitude>120.9399364325404</longitude>
			<latitude>21.66331242499054</latitude>
			<altitude>16.44253398602786</altitude>
			<heading>355.6584748662445</heading>
			<tilt>0</tilt>
			<gx:fovy>35</gx:fovy>
			<range>1255682.676538825</range>
			<altitudeMode>absolute</altitudeMode>
		</LookAt>
		<styleUrl>#__managed_style_03D5CE0ACC2974EBFFE1</styleUrl>
		<Polygon>
			<outerBoundaryIs>
				<LinearRing>
					<coordinates>
						118.0105141356188,23.39075027141735,734.286495248912 118.9046386866766,14.723783775001,-6970.46799558011 124.9730042949272,3.42647935119692,-7443.568252432155 128.9438008198699,-3.436111480164665,-2521.88605779591 142.1599611739147,-17.13574973188515,-609.9739262117009 137.94679216798,-21.97281961945006,215.8409306966477 145.7467774723723,-29.5388705013698,-239.0969369545096 167.0994204790862,-29.24872514487371,-5120.321294551316 164.83808236852,2.808822863462153,-4890.59377834777 166.6933975138584,36.08671591492006,-3087.412939952396 151.4697944683249,37.59115269530273,-5464.635391839357 139.6002073839365,37.37702100620987,1292.998016347365 128.4061403182966,36.74411763245678,166.9417628488374 117.1197011483963,35.31989853833163,1146.014639281957 116.5046609103704,32.63010807447059,-1649.543788286565 117.6049431074996,28.06264966764352,335.526201971691 118.5518405886292,25.69523084771938,704.5048674344298 121.0840193694913,24.70260029392457,331.1327672388544 118.0105141356188,23.39075027141735,734.286495248912 
					</coordinates>
				</LinearRing>
			</outerBoundaryIs>
		</Polygon>
	</Placemark>
</Document>
</kml>
